{"type": "FeatureCollection", "features": [ {"type": "Feature", "properties": {"norad_id": 43010, "name": "FENGYUN 3D", "group": "weather", "lat": 50.81970638672506, "lon": -48.12720806734656, "alt_km": 821.8895371596245, "timestamp": "2025-12-22T14:45:57.027002+00:00", "meta": {"OBJECT_NAME": "FENGYUN 3D", "OBJECT_ID": "2017-072A", "EPOCH": "2025-12-22T06:03:56.962368", "MEAN_MOTION": 14.19687912, "ECCENTRICITY": 0.00014011, "INCLINATION": 98.9902, "RA_OF_ASC_NODE": 322.7054, "ARG_OF_PERICENTER": 154.8221, "MEAN_ANOMALY": 205.3023, "EPHEMERIS_TYPE": 0, "CLASSIFICATION_TYPE": "U", "NORAD_CAT_ID": 43010, "ELEMENT_SET_NO": 999, "REV_AT_EPOCH": 41988, "BSTAR": 0.00026452448, "MEAN_MOTION_DOT": 5.13e-06, "MEAN_MOTION_DDOT": 0}, "tle": {"line1": "1 43010U 17072A   25356.25274262  .00000513  00000+0  26452-3 0  9996", "line2": "2 43010  98.9902 322.7054 0001401 154.8221 205.3023 14.19687912419882"}}, "geometry": {"type": "Point", "coordinates": [-48.12720806734656, 50.81970638672506]}}, {"type": "Feature", "properties": {"norad_id": 43013, "name": "NOAA 20 (JPSS-1)", "group": "weather", "lat": -18.208132322916796, "lon": 109.89675329677205, "alt_km": 832.7932081451754, "timestamp": "2025-12-22T14:45:57.027013+00:00", "meta": {"OBJECT_NAME": "NOAA 20 (JPSS-1)", "OBJECT_ID": "2017-073A", "EPOCH": "2025-12-22T05:22:35.154336", "MEAN_MOTION": 14.19528154, "ECCENTRICITY": 0.00021177, "INCLINATION": 98.7612, "RA_OF_ASC_NODE": 292.4175, "ARG_OF_PERICENTER": 73.6364, "MEAN_ANOMALY": 286.5045, "EPHEMERIS_TYPE": 0, "CLASSIFICATION_TYPE": "U", "NORAD_CAT_ID": 43013, "ELEMENT_SET_NO": 999, "REV_AT_EPOCH": 41936, "BSTAR": 6.3811282e-05, "MEAN_MOTION_DOT": 9e-07, "MEAN_MOTION_DDOT": 0}, "tle": {"line1": "1 43013U 17073A   25356.22401799  .00000090  00000+0  63811-4 0  9995", "line2": "2 43013  98.7612 292.4175 0002117  73.6364 286.5045 14.19528154419369"}}, "geometry": {"type": "Point", "coordinates": [109.89675329677205, -18.208132322916796]}}, {"type": "Feature", "properties": {"norad_id": 43226, "name": "GOES 17", "group": "weather", "lat": 0.32930821743623784, "lon": -136.64527465129382, "alt_km": 35779.41466327201, "timestamp": "2025-12-22T14:45:57.027026+00:00", "meta": {"OBJECT_NAME": "GOES 17", "OBJECT_ID": "2018-022A", "EPOCH": "2025-12-22T04:10:44.754240", "MEAN_MOTION": 1.00270236, "ECCENTRICITY": 0.00031209, "INCLINATION": 0.4804, "RA_OF_ASC_NODE": 89.1118, "ARG_OF_PERICENTER": 191.9234, "MEAN_ANOMALY": 143.1218, "EPHEMERIS_TYPE": 0, "CLASSIFICATION_TYPE": "U", "NORAD_CAT_ID": 43226, "ELEMENT_SET_NO": 999, "REV_AT_EPOCH": 2864, "BSTAR": 0, "MEAN_MOTION_DOT": -1.61e-06, "MEAN_MOTION_DDOT": 0}, "tle": {"line1": "1 43226U 18022A   25356.17412910 -.00000161  00000+0  00000+0 0  9993", "line2": "2 43226   0.4804  89.1118 0003120 191.9234 143.1218  1.00270236 28649"}}, "geometry": {"type": "Point", "coordinates": [-136.64527465129382, 0.32930821743623784]}}, {"type": "Feature", "properties": {"norad_id": 43491, "name": "FENGYUN 2H", "group": "weather", "lat": -1.9330026408758434, "lon": 32.292082166420116, "alt_km": 35794.72917185001, "timestamp": "2025-12-22T14:45:57.027050+00:00", "meta": {"OBJECT_NAME": "FENGYUN 2H", "OBJECT_ID": "2018-050A", "EPOCH": "2025-12-22T01:33:30.594816", "MEAN_MOTION": 1.00271057, "ECCENTRICITY": 0.00023632, "INCLINATION": 2.5736, "RA_OF_ASC_NODE": 81.232, "ARG_OF_PERICENTER": 165.9246, "MEAN_ANOMALY": 306.4444, "EPHEMERIS_TYPE": 0, "CLASSIFICATION_TYPE": "U", "NORAD_CAT_ID": 43491, "ELEMENT_SET_NO": 999, "REV_AT_EPOCH": 2766, "BSTAR": 0, "MEAN_MOTION_DOT": -1.09e-06, "MEAN_MOTION_DDOT": 0}, "tle": {"line1": "1 43491U 18050A   25356.06493744 -.00000109  00000+0  00000+0 0  9992", "line2": "2 43491   2.5736  81.2320 0002363 165.9246 306.4444  1.00271057 27668"}}, "geometry": {"type": "Point", "coordinates": [32.292082166420116, -1.9330026408758434]}}, {"type": "Feature", "properties": {"norad_id": 43689, "name": "METOP-C", "group": "weather", "lat": 47.99943513820772, "lon": 44.4517525292857, "alt_km": 815.4971522692867, "timestamp": "2025-12-22T14:45:57.027062+00:00", "meta": {"OBJECT_NAME": "METOP-C", "OBJECT_ID": "2018-087A", "EPOCH": "2025-12-22T06:05:26.615328", "MEAN_MOTION": 14.21487981, "ECCENTRICITY": 7.862e-05, "INCLINATION": 98.6915, "RA_OF_ASC_NODE": 53.877, "ARG_OF_PERICENTER": 21.5816, "MEAN_ANOMALY": 338.5394, "EPHEMERIS_TYPE": 0, "CLASSIFICATION_TYPE": "U", "NORAD_CAT_ID": 43689, "ELEMENT_SET_NO": 999, "REV_AT_EPOCH": 36969, "BSTAR": 8.8250563e-05, "MEAN_MOTION_DOT": 1.49e-06, "MEAN_MOTION_DDOT": 0}, "tle": {"line1": "1 43689U 18087A   25356.25378027  .00000149  00000+0  88251-4 0  9990", "line2": "2 43689  98.6915  53.8770 0000786  21.5816 338.5394 14.21487981369697"}}, "geometry": {"type": "Point", "coordinates": [44.4517525292857, 47.99943513820772]}}, {"type": "Feature", "properties": {"norad_id": 43823, "name": "GEO-KOMPSAT-2A", "group": "weather", "lat": -0.004629056949276194, "lon": 81.16045079020836, "alt_km": 35785.02580864965, "timestamp": "2025-12-22T14:45:57.027074+00:00", "meta": {"OBJECT_NAME": "GEO-KOMPSAT-2A", "OBJECT_ID": "2018-100A", "EPOCH": "2025-12-22T00:04:46.593120", "MEAN_MOTION": 1.00270405, "ECCENTRICITY": 3.891e-05, "INCLINATION": 0.0515, "RA_OF_ASC_NODE": 130.0014, "ARG_OF_PERICENTER": 332.6805, "MEAN_ANOMALY": 117.594, "EPHEMERIS_TYPE": 0, "CLASSIFICATION_TYPE": "U", "NORAD_CAT_ID": 43823, "ELEMENT_SET_NO": 999, "REV_AT_EPOCH": 2585, "BSTAR": 0, "MEAN_MOTION_DOT": -3.22e-06, "MEAN_MOTION_DDOT": 0}, "tle": {"line1": "1 43823U 18100A   25356.00331705 -.00000322  00000+0  00000+0 0  9996", "line2": "2 43823   0.0515 130.0014 0000389 332.6805 117.5940  1.00270405 25855"}}, "geometry": {"type": "Point", "coordinates": [81.16045079020836, -0.004629056949276194]}}, {"type": "Feature", "properties": {"norad_id": 44387, "name": "METEOR-M2 2", "group": "weather", "lat": -42.2166018819972, "lon": 148.29413602881917, "alt_km": 817.5242215066337, "timestamp": "2025-12-22T14:45:57.027085+00:00", "meta": {"OBJECT_NAME": "METEOR-M2 2", "OBJECT_ID": "2019-038A", "EPOCH": "2025-12-22T05:17:36.002976", "MEAN_MOTION": 14.24295964, "ECCENTRICITY": 0.0001667, "INCLINATION": 98.8974, "RA_OF_ASC_NODE": 336.0654, "ARG_OF_PERICENTER": 128.9824, "MEAN_ANOMALY": 231.1503, "EPHEMERIS_TYPE": 0, "CLASSIFICATION_TYPE": "U", "NORAD_CAT_ID": 44387, "ELEMENT_SET_NO": 999, "REV_AT_EPOCH": 33610, "BSTAR": 0.00018233853, "MEAN_MOTION_DOT": 3.75e-06, "MEAN_MOTION_DDOT": 0}, "tle": {"line1": "1 44387U 19038A   25356.22055559  .00000375  00000+0  18234-3 0  9996", "line2": "2 44387  98.8974 336.0654 0001667 128.9824 231.1503 14.24295964336108"}}, "geometry": {"type": "Point", "coordinates": [148.29413602881917, -42.2166018819972]}}, {"type": "Feature", "properties": {"norad_id": 47719, "name": "ARKTIKA-M 1", "group": "weather", "lat": 47.30738572729225, "lon": 115.92526184081439, "alt_km": 25537.411190204773, "timestamp": "2025-12-22T14:45:57.027100+00:00", "meta": {"OBJECT_NAME": "ARKTIKA-M 1", "OBJECT_ID": "2021-016A", "EPOCH": "2025-12-22T01:06:25.193952", "MEAN_MOTION": 2.00630804, "ECCENTRICITY": 0.72089477, "INCLINATION": 63.1758, "RA_OF_ASC_NODE": 82.7279, "ARG_OF_PERICENTER": 269.1606, "MEAN_ANOMALY": 15.5458, "EPHEMERIS_TYPE": 0, "CLASSIFICATION_TYPE": "U", "NORAD_CAT_ID": 47719, "ELEMENT_SET_NO": 999, "REV_AT_EPOCH": 3523, "BSTAR": 0, "MEAN_MOTION_DOT": -8.3e-07, "MEAN_MOTION_DDOT": 0}, "tle": {"line1": "1 47719U 21016A   25356.04612493 -.00000083  00000+0  00000+0 0  9998", "line2": "2 47719  63.1758  82.7279 7208947 269.1606  15.5458  2.00630804 35236"}}, "geometry": {"type": "Point", "coordinates": [115.92526184081439, 47.30738572729225]}}, {"type": "Feature", "properties": {"norad_id": 49008, "name": "FENGYUN 3E", "group": "weather", "lat": 24.80046982946946, "lon": -7.060384748700139, "alt_km": 825.5796551858666, "timestamp": "2025-12-22T14:45:57.027112+00:00", "meta": {"OBJECT_NAME": "FENGYUN 3E", "OBJECT_ID": "2021-062A", "EPOCH": "2025-12-22T06:11:30.316992", "MEAN_MOTION": 14.19882231, "ECCENTRICITY": 8.246e-05, "INCLINATION": 98.7469, "RA_OF_ASC_NODE": 356.6661, "ARG_OF_PERICENTER": 200.7489, "MEAN_ANOMALY": 159.3654, "EPHEMERIS_TYPE": 0, "CLASSIFICATION_TYPE": "U", "NORAD_CAT_ID": 49008, "ELEMENT_SET_NO": 999, "REV_AT_EPOCH": 23147, "BSTAR": 0.00014083926, "MEAN_MOTION_DOT": 2.55e-06, "MEAN_MOTION_DDOT": 0}, "tle": {"line1": "1 49008U 21062A   25356.25798978  .00000255  00000+0  14084-3 0  9999", "line2": "2 49008  98.7469 356.6661 0000824 200.7489 159.3654 14.19882231231472"}}, "geometry": {"type": "Point", "coordinates": [-7.060384748700139, 24.80046982946946]}}, {"type": "Feature", "properties": {"norad_id": 51850, "name": "GOES 18", "group": "weather", "lat": -0.0015919802571879766, "lon": 175.89841636095883, "alt_km": 35787.54215897245, "timestamp": "2025-12-22T14:45:57.027125+00:00", "meta": {"OBJECT_NAME": "GOES 18", "OBJECT_ID": "2022-021A", "EPOCH": "2025-12-22T05:40:50.816064", "MEAN_MOTION": 1.00270554, "ECCENTRICITY": 3.066e-05, "INCLINATION": 0.0173, "RA_OF_ASC_NODE": 189.5676, "ARG_OF_PERICENTER": 139.9715, "MEAN_ANOMALY": 69.7207, "EPHEMERIS_TYPE": 0, "CLASSIFICATION_TYPE": "U", "NORAD_CAT_ID": 51850, "ELEMENT_SET_NO": 999, "REV_AT_EPOCH": 481, "BSTAR": 0, "MEAN_MOTION_DOT": 1.19e-06, "MEAN_MOTION_DDOT": 0}, "tle": {"line1": "1 51850U 22021A   25356.23669926  .00000119  00000+0  00000+0 0  9999", "line2": "2 51850   0.0173 189.5676 0000306 139.9715  69.7207  1.00270554  4816"}}, "geometry": {"type": "Point", "coordinates": [175.89841636095883, -0.0015919802571879766]}}]}